[
    {
        "Altitude(m)": 611967.1740741467,
        "Argument of Periapsis(deg)": 0.0,
        "Eccentricity": 0.0,
        "Inclination(deg)": 60.0,
        "Latitude(deg)": 59.14014685035801,
        "Longitude(deg)": 1.0918937708839584,
        "Mean Anomaly(deg)": -261.8182,
        "RAAN(deg)": 355.0,
        "Satellite Name": "Test1 1568",
        "Satellite Number": 1568,
        "Semi-Major Axis(m)": 6980739.136638005,
        "Time(s)": 0
    },
    {
        "Altitude(m)": 611934.3745613238,
        "Argument of Periapsis(deg)": 0.00010418945913296404,
        "Eccentricity": 0.0,
        "Inclination(deg)": 60.0,
        "Latitude(deg)": 58.98651096361795,
        "Longitude(deg)": 2.2151400490031095,
        "Mean Anomaly(deg)": -261.1980938545382,
        "RAAN(deg)": 354.99957995086027,
        "Satellite Name": "Test1 1568",
        "Satellite Number": 1568,
        "Semi-Major Axis(m)": 6980739.136638005,
        "Time(s)": 10
    }
]